[{"OBJECT_NAME":"STARLINK-1669","OBJECT_ID":"2021-012E","EPOCH":"2026-03-09T22:00:01.999584","MEAN_MOTION":15.7520865,"ECCENTRICITY":0.00087944,"INCLINATION":53.0368,"RA_OF_ASC_NODE":350.7855,"ARG_OF_PERICENTER":92.6287,"MEAN_ANOMALY":29.9444,"EPHEMERIS_TYPE":0,"CLASSIFICATION_TYPE":"U","NORAD_CAT_ID":47624,"ELEMENT_SET_NO":999,"REV_AT_EPOCH":578,"BSTAR":0.0017201852,"MEAN_MOTION_DOT":0.00271838,"MEAN_MOTION_DDOT":0},{"OBJECT_NAME":"STARLINK-31023","OBJECT_ID":"2023-191Q","EPOCH":"2026-03-09T22:00:01.999584","MEAN_MOTION":15.45975103,"ECCENTRICITY":0.00015908,"INCLINATION":43.0003,"RA_OF_ASC_NODE":101.3849,"ARG_OF_PERICENTER":257.3874,"MEAN_ANOMALY":146.9374,"EPHEMERIS_TYPE":0,"CLASSIFICATION_TYPE":"U","NORAD_CAT_ID":58522,"ELEMENT_SET_NO":999,"REV_AT_EPOCH":573,"BSTAR":0.032411189,"MEAN_MOTION_DOT":0.01795706,"MEAN_MOTION_DDOT":0}]
